ONEWEB-0080             
1 45426U 20020C   25190.77341416  .00000390  00000+0  10639-2 0  9997
2 45426  87.8833  89.3128 0002263  80.2827 279.8556 13.11419658257826
ONEWEB-0090             
1 45427U 20020D   25190.94550357  .00000463  00000+0  12708-2 0  9993
2 45427  87.8836  89.2799 0001912  76.7471 283.3870 13.11416430257811
ONEWEB-0061             
1 45428U 20020E   25190.97757382 -.00000429  00000+0 -12455-2 0  9997
2 45428  87.8832  89.2554 0001932  79.1005 281.0340 13.11417766257774
ONEWEB-0081             
1 45429U 20020F   25190.73017407 -.00000098  00000+0 -31240-3 0  9995
2 45429  87.8831  89.3251 0001863  85.1478 274.9863 13.11412504257858
ONEWEB-0069             
1 45430U 20020G   25190.94804666  .00000461  00000+0  12646-2 0  9991
2 45430  87.8840  89.2727 0001806  80.5379 279.5953 13.11415197257811
ONEWEB-0031             
1 45431U 20020H   25190.76747967  .00000093  00000+0  22627-3 0  9994
2 45431  87.8841  89.3389 0002055  73.2949 286.8404 13.11419372257773
ONEWEB-0027             
1 45432U 20020J   25190.91052330  .00000051  00000+0  97616-4 0  9990
2 45432  87.9049  73.9783 0001723  69.9526 290.1791 13.17649583261289
ONEWEB-0064             
1 45433U 20020K   25190.76577916  .00000115  00000+0  28876-3 0  9998
2 45433  87.8836  89.3317 0001984  73.0888 287.0457 13.11420052257802
